[{"OBJECT_NAME":"NOAA 1","OBJECT_ID":"1970-106A","EPOCH":"2026-03-15T01:43:20.283456","MEAN_MOTION":12.54049344,"ECCENTRICITY":0.00318433,"INCLINATION":101.3501,"RA_OF_ASC_NODE":112.8745,"ARG_OF_PERICENTER":170.3548,"MEAN_ANOMALY":245.6262,"EPHEMERIS_TYPE":0,"CLASSIFICATION_TYPE":"U","NORAD_CAT_ID":4793,"ELEMENT_SET_NO":999,"REV_AT_EPOCH":52889,"BSTAR":0.00011367854,"MEAN_MOTION_DOT":-2.4e-7,"MEAN_MOTION_DDOT":0},{"OBJECT_NAME":"NOAA 2 (ITOS-D)","OBJECT_ID":"1972-082A","EPOCH":"2026-03-15T07:31:05.719296","MEAN_MOTION":12.53211999,"ECCENTRICITY":0.00039126,"INCLINATION":102.0159,"RA_OF_ASC_NODE":91.8322,"ARG_OF_PERICENTER":354.3542,"MEAN_ANOMALY":17.0468,"EPHEMERIS_TYPE":0,"CLASSIFICATION_TYPE":"U","NORAD_CAT_ID":6235,"ELEMENT_SET_NO":999,"REV_AT_EPOCH":44319,"BSTAR":0.00020829029,"MEAN_MOTION_DOT":-1.3e-7,"MEAN_MOTION_DDOT":0},{"OBJECT_NAME":"NOAA 3","OBJECT_ID":"1973-086A","EPOCH":"2026-03-15T07:20:42.169632","MEAN_MOTION":12.40391871,"ECCENTRICITY":0.0006183,"INCLINATION":102.2904,"RA_OF_ASC_NODE":87.3393,"ARG_OF_PERICENTER":298.1055,"MEAN_ANOMALY":73.3178,"EPHEMERIS_TYPE":0,"CLASSIFICATION_TYPE":"U","NORAD_CAT_ID":6920,"ELEMENT_SET_NO":999,"REV_AT_EPOCH":37026,"BSTAR":0.00017579925,"MEAN_MOTION_DOT":-2.3e-7,"MEAN_MOTION_DDOT":0},{"OBJECT_NAME":"NOAA 4","OBJECT_ID":"1974-089A","EPOCH":"2026-03-15T07:02:00.429792","MEAN_MOTION":12.53201817,"ECCENTRICITY":0.00090583,"INCLINATION":102.0069,"RA_OF_ASC_NODE":86.0844,"ARG_OF_PERICENTER":18.3084,"MEAN_ANOMALY":353.594,"EPHEMERIS_TYPE":0,"CLASSIFICATION_TYPE":"U","NORAD_CAT_ID":7529,"ELEMENT_SET_NO":999,"REV_AT_EPOCH":34776,"BSTAR":0.00019654944,"MEAN_MOTION_DOT":-1.5e-7,"MEAN_MOTION_DDOT":0},{"OBJECT_NAME":"NOAA 5","OBJECT_ID":"1976-077A","EPOCH":"2026-03-15T05:51:04.718304","MEAN_MOTION":12.37828641,"ECCENTRICITY":0.00098724,"INCLINATION":102.2966,"RA_OF_ASC_NODE":59.7798,"ARG_OF_PERICENTER":150.2684,"MEAN_ANOMALY":220.1182,"EPHEMERIS_TYPE":0,"CLASSIFICATION_TYPE":"U","NORAD_CAT_ID":9057,"ELEMENT_SET_NO":999,"REV_AT_EPOCH":24285,"BSTAR":0.00020013536,"MEAN_MOTION_DOT":-2.0e-7,"MEAN_MOTION_DDOT":0},{"OBJECT_NAME":"TIROS N","OBJECT_ID":"1978-096A","EPOCH":"2026-03-15T07:26:44.221920","MEAN_MOTION":14.19341081,"ECCENTRICITY":0.00110399,"INCLINATION":98.4626,"RA_OF_ASC_NODE":99.5806,"ARG_OF_PERICENTER":149.5178,"MEAN_ANOMALY":210.6643,"EPHEMERIS_TYPE":0,"CLASSIFICATION_TYPE":"U","NORAD_CAT_ID":11060,"ELEMENT_SET_NO":999,"REV_AT_EPOCH":66543,"BSTAR":0.00010951566,"MEAN_MOTION_DOT":1.89e-6,"MEAN_MOTION_DDOT":0},{"OBJECT_NAME":"NOAA 6","OBJECT_ID":"1979-057A","EPOCH":"2026-03-15T08:05:26.492352","MEAN_MOTION":14.3543802,"ECCENTRICITY":0.00100725,"INCLINATION":98.5743,"RA_OF_ASC_NODE":104.4564,"ARG_OF_PERICENTER":170.089,"MEAN_ANOMALY":190.0496,"EPHEMERIS_TYPE":0,"CLASSIFICATION_TYPE":"U","NORAD_CAT_ID":11416,"ELEMENT_SET_NO":999,"REV_AT_EPOCH":43749,"BSTAR":0.00012077673,"MEAN_MOTION_DOT":3.03e-6,"MEAN_MOTION_DDOT":0},{"OBJECT_NAME":"NOAA 7","OBJECT_ID":"1981-059A","EPOCH":"2026-03-15T03:58:49.052928","MEAN_MOTION":14.17774685,"ECCENTRICITY":0.0011628,"INCLINATION":98.8049,"RA_OF_ASC_NODE":142.1702,"ARG_OF_PERICENTER":172.1681,"MEAN_ANOMALY":187.9678,"EPHEMERIS_TYPE":0,"CLASSIFICATION_TYPE":"U","NORAD_CAT_ID":12553,"ELEMENT_SET_NO":999,"REV_AT_EPOCH":31142,"BSTAR":5.3881188e-5,"MEAN_MOTION_DOT":6.6e-7,"MEAN_MOTION_DDOT":0},{"OBJECT_NAME":"NOAA 8","OBJECT_ID":"1983-022A","EPOCH":"2026-03-15T07:01:39.462240","MEAN_MOTION":14.29769253,"ECCENTRICITY":0.00149742,"INCLINATION":98.737,"RA_OF_ASC_NODE":87.1088,"ARG_OF_PERICENTER":169.1969,"MEAN_ANOMALY":190.9537,"EPHEMERIS_TYPE":0,"CLASSIFICATION_TYPE":"U","NORAD_CAT_ID":13923,"ELEMENT_SET_NO":999,"REV_AT_EPOCH":23765,"BSTAR":8.1602731e-5,"MEAN_MOTION_DOT":1.65e-6,"MEAN_MOTION_DDOT":0},{"OBJECT_NAME":"NOAA 9","OBJECT_ID":"1984-123A","EPOCH":"2026-03-15T02:00:21.179808","MEAN_MOTION":14.17040907,"ECCENTRICITY":0.00137137,"INCLINATION":99.1089,"RA_OF_ASC_NODE":98.5005,"ARG_OF_PERICENTER":255.3624,"MEAN_ANOMALY":169.8918,"EPHEMERIS_TYPE":0,"CLASSIFICATION_TYPE":"U","NORAD_CAT_ID":15427,"ELEMENT_SET_NO":999,"REV_AT_EPOCH":13009,"BSTAR":8.2303219e-5,"MEAN_MOTION_DOT":1.19e-6,"MEAN_MOTION_DDOT":0},{"OBJECT_NAME":"NOAA 10","OBJECT_ID":"1986-073A","EPOCH":"2026-03-15T04:54:57.165984","MEAN_MOTION":14.29146905,"ECCENTRICITY":0.00109155,"INCLINATION":98.7004,"RA_OF_ASC_NODE":67.5868,"ARG_OF_PERICENTER":271.4124,"MEAN_ANOMALY":99.2178,"EPHEMERIS_TYPE":0,"CLASSIFICATION_TYPE":"U","NORAD_CAT_ID":16969,"ELEMENT_SET_NO":999,"REV_AT_EPOCH":5599,"BSTAR":8.3022573e-5,"MEAN_MOTION_DOT":1.66e-6,"MEAN_MOTION_DDOT":0},{"OBJECT_NAME":"NOAA 11","OBJECT_ID":"1988-089A","EPOCH":"2026-03-15T02:04:59.381760","MEAN_MOTION":14.15822254,"ECCENTRICITY":0.00105232,"INCLINATION":98.6102,"RA_OF_ASC_NODE":22.9454,"ARG_OF_PERICENTER":203.1137,"MEAN_ANOMALY":156.9565,"EPHEMERIS_TYPE":0,"CLASSIFICATION_TYPE":"U","NORAD_CAT_ID":19531,"ELEMENT_SET_NO":999,"REV_AT_EPOCH":93416,"BSTAR":5.943448e-5,"MEAN_MOTION_DOT":7.5e-7,"MEAN_MOTION_DDOT":0},{"OBJECT_NAME":"NOAA 12","OBJECT_ID":"1991-032A","EPOCH":"2026-03-15T07:03:02.291328","MEAN_MOTION":14.2671961,"ECCENTRICITY":0.00126935,"INCLINATION":98.6159,"RA_OF_ASC_NODE":64.2078,"ARG_OF_PERICENTER":305.8176,"MEAN_ANOMALY":54.1824,"EPHEMERIS_TYPE":0,"CLASSIFICATION_TYPE":"U","NORAD_CAT_ID":21263,"ELEMENT_SET_NO":999,"REV_AT_EPOCH":81157,"BSTAR":6.407179e-5,"MEAN_MOTION_DOT":1.11e-6,"MEAN_MOTION_DDOT":0},{"OBJECT_NAME":"NOAA 13","OBJECT_ID":"1993-050A","EPOCH":"2026-03-14T19:35:53.890080","MEAN_MOTION":14.13638384,"ECCENTRICITY":0.00102661,"INCLINATION":98.6937,"RA_OF_ASC_NODE":21.4206,"ARG_OF_PERICENTER":43.6534,"MEAN_ANOMALY":316.545,"EPHEMERIS_TYPE":0,"CLASSIFICATION_TYPE":"U","NORAD_CAT_ID":22739,"ELEMENT_SET_NO":999,"REV_AT_EPOCH":68004,"BSTAR":9.0400949e-5,"MEAN_MOTION_DOT":1.28e-6,"MEAN_MOTION_DDOT":0},{"OBJECT_NAME":"NOAA 14","OBJECT_ID":"1994-089A","EPOCH":"2026-03-15T06:28:12.597600","MEAN_MOTION":14.14656672,"ECCENTRICITY":0.00094826,"INCLINATION":98.5031,"RA_OF_ASC_NODE":48.2197,"ARG_OF_PERICENTER":0.8231,"MEAN_ANOMALY":359.2957,"EPHEMERIS_TYPE":0,"CLASSIFICATION_TYPE":"U","NORAD_CAT_ID":23455,"ELEMENT_SET_NO":999,"REV_AT_EPOCH":60992,"BSTAR":5.6723764e-5,"MEAN_MOTION_DOT":6.8e-7,"MEAN_MOTION_DDOT":0},{"OBJECT_NAME":"NOAA 15","OBJECT_ID":"1998-030A","EPOCH":"2026-03-15T07:22:57.646560","MEAN_MOTION":14.27114978,"ECCENTRICITY":0.00090829,"INCLINATION":98.5157,"RA_OF_ASC_NODE":97.4421,"ARG_OF_PERICENTER":261.5149,"MEAN_ANOMALY":98.5003,"EPHEMERIS_TYPE":0,"CLASSIFICATION_TYPE":"U","NORAD_CAT_ID":25338,"ELEMENT_SET_NO":999,"REV_AT_EPOCH":44790,"BSTAR":7.9099458e-5,"MEAN_MOTION_DOT":1.5e-6,"MEAN_MOTION_DDOT":0},{"OBJECT_NAME":"NOAA 16","OBJECT_ID":"2000-055A","EPOCH":"2026-03-15T07:55:25.228704","MEAN_MOTION":14.1389977,"ECCENTRICITY":0.0009869,"INCLINATION":98.4699,"RA_OF_ASC_NODE":93.5388,"ARG_OF_PERICENTER":205.0275,"MEAN_ANOMALY":155.0421,"EPHEMERIS_TYPE":0,"CLASSIFICATION_TYPE":"U","NORAD_CAT_ID":26536,"ELEMENT_SET_NO":999,"REV_AT_EPOCH":61046,"BSTAR":8.6055031e-5,"MEAN_MOTION_DOT":1.22e-6,"MEAN_MOTION_DDOT":0}]
