NOAA 1                  
1 04793U 70106A   26074.07176254 -.00000024  00000+0  11368-3 0  9996
2 04793 101.3501 112.8745 0031843 170.3548 245.6262 12.54049344528896
NOAA 2 (ITOS-D)         
1 06235U 72082A   26074.31326064 -.00000013  00000+0  20829-3 0  9997
2 06235 102.0159  91.8322 0003912 354.3542  17.0468 12.53211999443191
NOAA 3                  
1 06920U 73086A   26074.30604363 -.00000023  00000+0  17580-3 0  9994
2 06920 102.2904  87.3393 0006183 298.1055  73.3178 12.40391871370261
NOAA 4                  
1 07529U 74089A   26074.29306053 -.00000015  00000+0  19655-3 0  9993
2 07529 102.0069  86.0844 0009058  18.3084 353.5940 12.53201817347765
NOAA 5                  
1 09057U 76077A   26074.24380461 -.00000020  00000+0  20014-3 0  9997
2 09057 102.2966  59.7798 0009872 150.2684 220.1182 12.37828641242855
TIROS N                 
1 11060U 78096A   26074.31023405  .00000189  00000+0  10952-3 0  9992
2 11060  98.4626  99.5806 0011039 149.5178 210.6643 14.19341081665439
NOAA 6                  
1 11416U 79057A   26074.33711218  .00000303  00000+0  12078-3 0  9992
2 11416  98.5743 104.4564 0010072 170.0890 190.0496 14.35438020437496
NOAA 7                  
1 12553U 81059A   26074.16584552  .00000066  00000+0  53881-4 0  9994
2 12553  98.8049 142.1702 0011628 172.1681 187.9678 14.17774685311424
NOAA 8                  
1 13923U 83022A   26074.29281785  .00000165  00000+0  81603-4 0  9997
2 13923  98.7370  87.1088 0014974 169.1969 190.9537 14.29769253237657
NOAA 9                  
1 15427U 84123A   26074.08357847  .00000119  00000+0  82303-4 0  9998
2 15427  99.1089  98.5005 0013713 255.3624 169.8918 14.17040907130094
NOAA 10                 
1 16969U 86073A   26074.20482831  .00000166  00000+0  83023-4 0  9994
2 16969  98.7004  67.5868 0010915 271.4124  99.2178 14.29146905 55993
NOAA 11                 
1 19531U 88089A   26074.08679840  .00000075  00000+0  59434-4 0  9993
2 19531  98.6102  22.9454 0010523 203.1137 156.9565 14.15822254934165
NOAA 12                 
1 21263U 91032A   26074.29377652  .00000111  00000+0  64072-4 0  9994
2 21263  98.6159  64.2078 0012693 305.8176  54.1824 14.26719610811575
NOAA 13                 
1 22739U 93050A   26073.81659595  .00000128  00000+0  90401-4 0  9994
2 22739  98.6937  21.4206 0010266  43.6534 316.5450 14.13638384680045
NOAA 14                 
1 23455U 94089A   26074.26959025  .00000068  00000+0  56724-4 0  9997
2 23455  98.5031  48.2197 0009482   0.8231 359.2957 14.14656672609923
NOAA 15                 
1 25338U 98030A   26074.30761165  .00000150  00000+0  79099-4 0  9992
2 25338  98.5157  97.4421 0009082 261.5149  98.5003 14.27114978447905
NOAA 16                 
1 26536U 00055A   26074.33015311  .00000122  00000+0  86055-4 0  9990
2 26536  98.4699  93.5388 0009869 205.0275 155.0421 14.13899770610462
